{
  "norad_id": 41747,
  "name": "INTELSAT 36 (IS-36)",
  "history": [
    {
      "epoch": "2026-03-28T15:06:40.929696Z",
      "apogee_km": 35793.49325986582,
      "perigee_km": 35780.90269084218,
      "latitude_deg": -0.030364412081091384,
      "longitude_deg": 68.54124176076029,
      "height_km": 35792.44108078952,
      "semi_major_axis_km": 42165.334975354,
      "eccentricity": 0.0001493,
      "inclination_deg": 0.0141,
      "raan_deg": 173.3086,
      "arg_perigee_deg": 151.9438,
      "mean_anomaly_deg": 155.9762,
      "mean_motion_rev_day": 1.00269634
    },
    {
      "epoch": "2026-03-29T01:08:51.768960Z",
      "apogee_km": 35792.861815576376,
      "perigee_km": 35781.822893081415,
      "latitude_deg": 0.03756297366124117,
      "longitude_deg": 68.52362230250966,
      "height_km": 35783.20642133734,
      "semi_major_axis_km": 42165.4793543289,
      "eccentricity": 0.0001309,
      "inclination_deg": 0.0136,
      "raan_deg": 179.2191,
      "arg_perigee_deg": 141.7633,
      "mean_anomaly_deg": 311.2044,
      "mean_motion_rev_day": 1.00269119
    }
  ]
}